     2.100          NAVIGATION                              RINEX VERSION / TYPE
fic2rin                                 04/03/2012 00:10:32 PGM / RUN BY / DATE
                                                            END OF HEADER
23 12  4  2 12  0  0.0  .218579079956D-03 -.352429196937D-11  .000000000000D+00
     .790000000000D+02 -.245625000000D+02  .444661379074D-08 -.725912034636D+00
    -.141002237797D-05  .767773133703D-02  .967085361481D-05  .515365309906D+04
     .129600000000D+06  .169500708580D-06  .188163165239D+01 -.122934579849D-06
     .960543499589D+00  .192125000000D+03 -.302818831933D+01 -.807926510525D-08
    -.527879131142D-09  .100000000000D+01  .168200000000D+04  .000000000000D+00
     .240000000000D+01  .000000000000D+00 -.200234353542D-07  .790000000000D+02
     .122406000000D+06  .400000000000D+01
25 12  4  2 12  0  0.0  .326721929014D-04  .341060513165D-12  .000000000000D+00
     .167000000000D+03 -.637500000000D+01  .457947646786D-08  .262282782941D+01
    -.225380063057D-06  .145891238935D-02  .386871397495D-05  .515373454285D+04
     .129600000000D+06 -.745058059692D-08 -.233112786289D+01 -.633299350739D-07
     .967860053222D+00  .308312500000D+03  .603225550994D+00 -.833463288520D-08
     .177150236161D-09  .100000000000D+01  .168200000000D+04  .000000000000D+00
     .340000000000D+01  .000000000000D+00  .558793544769D-08  .167000000000D+03
     .122406000000D+06  .400000000000D+01
26 12  4  2 12  0  0.0 -.245152041316D-03 -.545696821064D-10  .000000000000D+00
     .640000000000D+02 -.621875000000D+01  .402659629533D-08 -.869013143623D+00
    -.100582838058D-06  .209578553913D-01  .933930277824D-05  .515366053772D+04
     .129600000000D+06 -.949949026108D-07  .195321753270D+01  .441446900368D-06
     .983670642768D+00  .213531250000D+03  .118288206685D+01 -.808426531353D-08
    -.440375486264D-09  .100000000000D+01  .168200000000D+04  .000000000000D+00
     .240000000000D+01  .000000000000D+00 -.605359673500D-08  .640000000000D+02
     .122406000000D+06  .400000000000D+01
27 12  4  2 12  0  0.0  .373183283955D-03  .397903932026D-11  .000000000000D+00
     .138000000000D+03  .481562500000D+02  .390873424304D-08  .571878756817D-01
     .251270830631D-05  .218022147892D-01  .943802297115D-05  .515375430107D+04
     .129600000000D+06 -.191852450371D-06  .287701366536D+01 -.357627868652D-06
     .982220251656D+00  .216218750000D+03 -.110227952900D+01 -.814676791701D-08
     .914323799542D-10  .100000000000D+01  .168200000000D+04  .000000000000D+00
     .340000000000D+01  .000000000000D+00 -.419095158577D-08  .138000000000D+03
     .122406000000D+06  .400000000000D+01
28 12  4  2 12  0  0.0  .129081774503D-03  .409272615798D-11  .000000000000D+00
     .870000000000D+02 -.609375000000D+01  .451554523344D-08  .108687612514D+01
    -.480562448502D-06  .178690180182D-01  .390224158764D-05  .515370450211D+04
     .129600000000D+06 -.271946191788D-06 -.227276905587D+01 -.614672899246D-07
     .978188434800D+00  .316781250000D+03 -.182971093864D+01 -.850642575535D-08
     .396445084958D-10  .100000000000D+01  .168200000000D+04  .000000000000D+00
     .240000000000D+01  .000000000000D+00 -.107102096081D-07  .870000000000D+02
     .122406000000D+06  .400000000000D+01
30 12  4  2 12  0  0.0 -.111773610115D-03 -.172803993337D-10  .000000000000D+00
     .360000000000D+02  .700000000000D+01  .490520432145D-08  .381077593183D+00
     .389292836189D-06  .109338336624D-01  .378675758839D-05  .515363183784D+04
     .129600000000D+06 -.167638063431D-06 -.242150769962D+01 -.838190317154D-07
     .959167923571D+00  .308062500000D+03  .155543092809D+01 -.871250576798D-08
     .126076680171D-09  .100000000000D+01  .168200000000D+04  .000000000000D+00
     .685000000000D+01  .000000000000D+00 -.419095158577D-08  .360000000000D+02
     .122406000000D+06  .400000000000D+01
32 12  4  2 12  0  0.0 -.427863560617D-03 -.454747350886D-11  .000000000000D+00
     .640000000000D+02  .130625000000D+02  .518557314279D-08 -.171826245417D+01
     .655651092529D-06  .118290620157D-01  .527687370777D-05  .515370563507D+04
     .129600000000D+06 -.258907675743D-06  .908297633282D+00 -.149011611938D-06
     .952073442366D+00  .273000000000D+03 -.596772837321D+00 -.855428489173D-08
    -.503592405216D-10  .100000000000D+01  .168200000000D+04  .000000000000D+00
     .240000000000D+01  .000000000000D+00 -.279396772385D-08  .640000000000D+02
     .122406000000D+06  .400000000000D+01
14 12  4  2 11 59 28.0  .198943540454D-03  .113686837722D-11  .000000000000D+00
     .000000000000D+00 -.728125000000D+01  .406874090796D-08  .135020581498D+00
    -.363215804100D-06  .616492761765D-02  .991486012936D-05  .515357585907D+04
     .129568000000D+06 -.279396772385D-07  .193274501237D+01  .614672899246D-07
     .978977449426D+00  .199875000000D+03 -.206010715774D+01 -.795640284469D-08
    -.494306304127D-09  .100000000000D+01  .168200000000D+04  .000000000000D+00
     .240000000000D+01  .000000000000D+00 -.884756445885D-08  .000000000000D+00
     .122916000000D+06  .400000000000D+01
25 12  4  2 11 59 44.0  .326712615788D-04  .341060513165D-12  .000000000000D+00
     .400000000000D+02 -.637500000000D+01  .457911931013D-08  .262049114255D+01
    -.225380063057D-06  .145891169086D-02  .386871397495D-05  .515373454285D+04
     .129584000000D+06 -.745058059692D-08 -.233112772099D+01 -.633299350739D-07
     .967860044444D+00  .308312500000D+03  .603228595327D+00 -.833499004293D-08
     .177507393895D-09  .100000000000D+01  .168200000000D+04  .000000000000D+00
     .240000000000D+01  .000000000000D+00  .558793544769D-08  .400000000000D+02
     .123756000000D+06  .400000000000D+01
 6 12  4  2 11 59 44.0  .315718352795D-04 -.568434188608D-12  .000000000000D+00
     .130000000000D+02 -.100156250000D+03  .511199864955D-08  .123184078110D+01
    -.520795583725D-05  .722088979091D-02  .842846930027D-05  .515369855881D+04
     .129584000000D+06  .182539224625D-06 -.133036126101D+01  .316649675369D-07
     .937483555553D+00  .203468750000D+03 -.581609527583D+00 -.839499254228D-08
    -.241795786051D-09  .100000000000D+01  .168200000000D+04  .000000000000D+00
     .240000000000D+01  .000000000000D+00 -.512227416039D-08  .130000000000D+02
     .124986000000D+06  .400000000000D+01
21 12  4  2 11 59 44.0 -.214649830014D-03 -.250111042988D-11  .000000000000D+00
     .130000000000D+02  .324062500000D+02  .509985528659D-08  .304642475182D+01
     .147335231304D-05  .188807960367D-01  .105984508991D-04  .515363711357D+04
     .129584000000D+06  .130385160446D-07 -.220204863205D+00 -.242143869400D-06
     .931859881944D+00  .159125000000D+03 -.227211063448D+01 -.801033366255D-08
     .362872257943D-09  .100000000000D+01  .168200000000D+04  .000000000000D+00
     .240000000000D+01  .000000000000D+00 -.111758708954D-07  .130000000000D+02
     .125256000000D+06  .400000000000D+01
17 12  4  2 11 59 44.0  .138582661748D-03 -.250111042988D-11  .000000000000D+00
     .100000000000D+02 -.819375000000D+02  .458161941427D-08  .509087113453D+00
    -.435113906860D-05  .728492706548D-02  .869296491146D-05  .515366053963D+04
     .129584000000D+06 -.100582838058D-06 -.123838866491D+01  .931322574615D-07
     .962426491669D+00  .215312500000D+03 -.231154143497D+01 -.815498254490D-08
    -.180364655769D-09  .100000000000D+01  .168200000000D+04  .000000000000D+00
     .240000000000D+01  .000000000000D+00 -.107102096081D-07  .100000000000D+02
     .126666000000D+06  .400000000000D+01
14 12  4  2 13 59 28.0  .198951456696D-03  .113686837722D-11  .000000000000D+00
     .200000000000D+02 -.108437500000D+02  .410017078857D-08  .118529217026D+01
    -.571832060814D-06  .616400898434D-02  .959262251854D-05  .515357424927D+04
     .136768000000D+06 -.102445483208D-06  .193268766013D+01  .428408384323D-07
     .978973906238D+00  .207687500000D+03 -.206014005438D+01 -.793068748782D-08
    -.475734101949D-09  .100000000000D+01  .168200000000D+04  .000000000000D+00
     .240000000000D+01  .000000000000D+00 -.884756445885D-08  .200000000000D+02
     .129606000000D+06  .400000000000D+01
 6 12  4  2 13 59 44.0  .315681099892D-04 -.568434188608D-12  .000000000000D+00
     .140000000000D+02 -.881250000000D+02  .502592363561D-08  .228178992077D+01
    -.462494790554D-05  .722099072300D-02  .854022800922D-05  .515370143890D+04
     .136784000000D+06  .117346644402D-06 -.133042141474D+01  .117346644402D-06
     .937481742998D+00  .199656250000D+03 -.581390467304D+00 -.835999108433D-08
    -.247510309798D-09  .100000000000D+01  .168200000000D+04  .000000000000D+00
     .240000000000D+01  .000000000000D+00 -.512227416039D-08  .140000000000D+02
     .129606000000D+06  .400000000000D+01
17 12  4  2 13 59 44.0  .138564035296D-03 -.250111042988D-11  .000000000000D+00
     .110000000000D+02 -.997812500000D+02  .439696886569D-08  .155885359464D+01
    -.507943332195D-05  .728632265236D-02  .931881368160D-05  .515366689682D+04
     .136784000000D+06 -.149011611938D-06 -.123844732207D+01  .372529029846D-08
     .962425055084D+00  .198718750000D+03 -.231112064853D+01 -.813069581897D-08
    -.195722438339D-09  .100000000000D+01  .168200000000D+04  .000000000000D+00
     .240000000000D+01  .000000000000D+00 -.107102096081D-07  .110000000000D+02
     .129606000000D+06  .400000000000D+01
21 12  4  2 13 59 44.0 -.214667525142D-03 -.250111042988D-11  .000000000000D+00
     .140000000000D+02  .309687500000D+02  .511878464650D-08 -.218659990553D+01
     .126473605633D-05  .188819818432D-01  .978074967861D-05  .515363444519D+04
     .136784000000D+06  .210478901863D-06 -.220263899264D+00 -.875443220139D-07
     .931862989182D+00  .170718750000D+03 -.227206269905D+01 -.808033657845D-08
     .550380068396D-09  .100000000000D+01  .168200000000D+04  .000000000000D+00
     .240000000000D+01  .000000000000D+00 -.111758708954D-07  .140000000000D+02
     .129606000000D+06  .400000000000D+01
